[{"name":"INSAT-3DS","l1":"1 58990U 24033A   26183.38496355 -.00000144  00000+0  00000+0 0  9994","l2":"2 58990   0.0716  96.8706 0001431 355.3676  48.8097  1.00269425 47227","cat":"geostationary"},{"name":"IRS-P5 (CARTOSAT-1)","l1":"1 28649U 05017A   26183.51306473  .00001500  00000+0  15672-3 0  9990","l2":"2 28649  97.5305 205.8823 0002108  62.0385 298.1047 14.91090758146100","cat":"science"},{"name":"KAZEOSAT 1","l1":"1 39731U 14024A   26183.77197201  .00000325  00000+0  11181-3 0  9992","l2":"2 39731  98.3205 255.8317 0001155  77.7286 282.4033 14.42086610640804","cat":"other"},{"name":"KAZEOSAT 2","l1":"1 40010U 14033A   26183.79018433  .00001121  00000+0  13571-3 0  9995","l2":"2 40010  97.5394  22.5770 0006936 269.1496  90.8925 14.85490275651277","cat":"other"},{"name":"JASON-3","l1":"1 41240U 16002A   26183.76975041 -.00000037  00000+0  99072-4 0  9990","l2":"2 41240  66.0417  93.0758 0008308 271.8824  88.1243 12.87623278489250","cat":"other"},{"name":"KAZSTSAT","l1":"1 43783U 18099AB  26183.57498709  .00002131  00000+0  17615-3 0  9990","l2":"2 43783  97.4302 214.8068 0008299  26.1477 334.0165 14.99922730413619","cat":"other"},{"name":"IONOSFERA-M 1","l1":"1 61735U 24199A   26183.73580752  .00000082  00000+0  55997-4 0  9992","l2":"2 61735  98.7152  56.7425 0002210  89.7022 270.4409 14.22757256129917","cat":"other"},{"name":"IONOSFERA-M 2","l1":"1 61736U 24199B   26183.77006520  .00000086  00000+0  57814-4 0  9997","l2":"2 61736  98.7151  56.6868 0000404  52.6346 307.4869 14.22760625133042","cat":"other"},{"name":"IONOSFERA-M 3","l1":"1 64876U 25155A   26183.80171939  .00000068  00000+0  50908-4 0  9996","l2":"2 64876  98.6039 145.3142 0001836 130.9929 229.1407 14.21489141 48629","cat":"other"},{"name":"IONOSFERA-M 4","l1":"1 64877U 25155B   26183.76614606  .00000059  00000+0  46417-4 0  9995","l2":"2 64877  98.6038 145.1967 0001557 111.3822 248.7522 14.21491454 48611","cat":"other"}]